$$SOE
2460714.500000000, A.D. 2025-Feb-08 00:00:00.0000, 3.739797539996811E+08, -3.141170235305910E+08, -4.216983996028408E+07,
2460721.500000000, A.D. 2025-Feb-15 00:00:00.0000, 3.792077879772472E+08, -3.058188320596678E+08, -4.175733205645627E+07,
2460728.500000000, A.D. 2025-Feb-22 00:00:00.0000, 3.842783342653942E+08, -2.973936943875445E+08, -4.132748140825817E+07,
2460735.500000000, A.D. 2025-Mar-01 00:00:00.0000, 3.891880327066135E+08, -2.888441367692822E+08, -4.088033160446554E+07,
2460742.500000000, A.D. 2025-Mar-08 00:00:00.0000, 3.939335371625436E+08, -2.801727770082946E+08, -4.041593420849693E+07,
2460749.500000000, A.D. 2025-Mar-15 00:00:00.0000, 3.985115177384620E+08, -2.713823242125056E+08, -3.993434883292608E+07,
2460756.500000000, A.D. 2025-Mar-22 00:00:00.0000, 4.029186609165862E+08, -2.624755799407351E+08, -3.943564312918863E+07,
2460763.500000000, A.D. 2025-Mar-29 00:00:00.0000, 4.071516711773314E+08, -2.534554415751781E+08, -3.891989308929466E+07,
2460770.500000000, A.D. 2025-Apr-05 00:00:00.0000, 4.112072744364765E+08, -2.443249047750175E+08, -3.838718343283495E+07,
2460777.500000000, A.D. 2025-Apr-12 00:00:00.0000, 4.150822213755487E+08, -2.350870649009806E+08, -3.783760789410794E+07,
2460784.500000000, A.D. 2025-Apr-19 00:00:00.0000, 4.187732904810510E+08, -2.257451182857636E+08, -3.727126946414988E+07,
2460791.500000000, A.D. 2025-Apr-26 00:00:00.0000, 4.222772910666436E+08, -2.163023635463720E+08, -3.668828062902914E+07,
2460798.500000000, A.D. 2025-May-03 00:00:00.0000, 4.255910663942052E+08, -2.067622029117632E+08, -3.608876361303538E+07,
2460805.500000000, A.D. 2025-May-10 00:00:00.0000, 4.287114969244101E+08, -1.971281435494024E+08, -3.547285062837160E+07,
2460812.500000000, A.D. 2025-May-17 00:00:00.0000, 4.316355037351519E+08, -1.874037989238090E+08, -3.484068413768057E+07,
2460819.500000000, A.D. 2025-May-24 00:00:00.0000, 4.343600522825307E+08, -1.775928902330584E+08, -3.419241714931513E+07,
2460826.500000000, A.D. 2025-May-31 00:00:00.0000, 4.368821569225833E+08, -1.676992476026788E+08, -3.352821355764426E+07,
2460833.500000000, A.D. 2025-Jun-07 00:00:00.0000, 4.391988857943819E+08, -1.577268098221983E+08, -3.284824839249387E+07,
2460840.500000000, A.D. 2025-Jun-14 00:00:00.0000, 4.413073637022122E+08, -1.476796232827848E+08, -3.215270781470705E+07,
2460847.500000000, A.D. 2025-Jun-21 00:00:00.0000, 4.432047742130567E+08, -1.375618433793265E+08, -3.144178923602750E+07,
2460854.500000000, A.D. 2025-Jun-28 00:00:00.0000, 4.448883640945203E+08, -1.273777366022990E+08, -3.071570170503799E+07,
2460861.500000000, A.D. 2025-Jul-05 00:00:00.0000, 4.463554485734779E+08, -1.171316811520581E+08, -2.997466624271899E+07,
2460868.500000000, A.D. 2025-Jul-12 00:00:00.0000, 4.476034162210256E+08, -1.068281668696917E+08, -2.921891608307778E+07,
2460875.500000000, A.D. 2025-Jul-19 00:00:00.0000, 4.486297336493191E+08, -9.647179504730931E+07, -2.844869688208784E+07,
2460882.500000000, A.D. 2025-Jul-26 00:00:00.0000, 4.494319502266529E+08, -8.606727816139539E+07, -2.766426691770482E+07,
2460889.500000000, A.D. 2025-Aug-02 00:00:00.0000, 4.500077028733453E+08, -7.561943949484986E+07, -2.686589728410973E+07,
2460896.500000000, A.D. 2025-Aug-09 00:00:00.0000, 4.503547209590652E+08, -6.513321265053582E+07, -2.605387208240715E+07,
2460903.500000000, A.D. 2025-Aug-16 00:00:00.0000, 4.504708313745315E+08, -5.461364100874428E+07, -2.522848861878317E+07,
2460910.500000000, A.D. 2025-Aug-23 00:00:00.0000, 4.503539640636536E+08, -4.406587710163745E+07, -2.439005763423821E+07,
2460917.500000000, A.D. 2025-Aug-30 00:00:00.0000, 4.500021583358873E+08, -3.349518117909484E+07, -2.353890353612378E+07,
2460924.500000000, A.D. 2025-Sep-06 00:00:00.0000, 4.494135685318705E+08, -2.290691795291279E+07, -2.267536441790910E+07,
2460931.500000000, A.D. 2025-Sep-13 00:00:00.0000, 4.485864673638337E+08, -1.230655399117981E+07, -2.179979191517632E+07,
2460938.500000000, A.D. 2025-Sep-20 00:00:00.0000, 4.475192501922906E+08, -1.699657397511011E+06, -2.091255133080707E+07,
2460945.500000000, A.D. 2025-Sep-27 00:00:00.0000, 4.462104412827252E+08, 8.908103347910579E+06, -2.001402187035951E+07,
2460952.500000000, A.D. 2025-Oct-04 00:00:00.0000, 4.446587000112622E+08, 1.951096193677711E+07, -1.910459675680595E+07,
2460959.500000000, A.D. 2025-Oct-11 00:00:00.0000, 4.428628266312863E+08, 3.010305723901279E+07, -1.818468326578494E+07,
2460966.500000000, A.D. 2025-Oct-18 00:00:00.0000, 4.408217678694804E+08, 4.067843650354379E+07, -1.725470272831896E+07,
2460973.500000000, A.D. 2025-Oct-25 00:00:00.0000, 4.385346224748908E+08, 5.123105877480055E+07, -1.631509051153371E+07,
2460980.500000000, A.D. 2025-Nov-01 00:00:00.0000, 4.360006467438171E+08, 6.175479854987387E+07, -1.536629597846468E+07,
2460987.500000000, A.D. 2025-Nov-08 00:00:00.0000, 4.332192600376469E+08, 7.224344965319426E+07, -1.440878243148235E+07,
2460994.500000000, A.D. 2025-Nov-15 00:00:00.0000, 4.301900504230443E+08, 8.269072927692491E+07, -1.344302705653738E+07,
2461001.500000000, A.D. 2025-Nov-22 00:00:00.0000, 4.269127808166516E+08, 9.309028241197652E+07, -1.246952088609678E+07,
2461008.500000000, A.D. 2025-Nov-29 00:00:00.0000, 4.233873954573421E+08, 1.034356878087626E+08, -1.148876867282105E+07,
2461015.500000000, A.D. 2025-Dec-06 00:00:00.0000, 4.196140244053658E+08, 1.137204653369159E+08, -1.050128847487388E+07,
2461022.500000000, A.D. 2025-Dec-13 00:00:00.0000, 4.155929864817786E+08, 1.239380813761708E+08, -9.507611266963311E+06,
2461029.500000000, A.D. 2025-Dec-20 00:00:00.0000, 4.113247941172683E+08, 1.340819532600312E+08, -8.508280813053653E+06,
2461036.500000000, A.D. 2025-Dec-27 00:00:00.0000, 4.068101590093356E+08, 1.441454553619239E+08, -7.503853489514142E+06,
2461043.500000000, A.D. 2026-Jan-03 00:00:00.0000, 4.020499971023541E+08, 1.541219262061059E+08, -6.494897974181347E+06,
2461050.500000000, A.D. 2026-Jan-10 00:00:00.0000, 3.970454329744024E+08, 1.640046759202443E+08, -5.481994866022334E+06,
2461057.500000000, A.D. 2026-Jan-17 00:00:00.0000, 3.917978038371602E+08, 1.737869939318963E+08, -4.465736263481908E+06,
2461064.500000000, A.D. 2026-Jan-24 00:00:00.0000, 3.863086632002780E+08, 1.834621569234001E+08, -3.446725306201600E+06,
2461071.500000000, A.D. 2026-Jan-31 00:00:00.0000, 3.805797841971620E+08, 1.930234370276905E+08, -2.425575682403654E+06,
2461078.500000000, A.D. 2026-Feb-07 00:00:00.0000, 3.746131626076593E+08, 2.024641101956898E+08, -1.402911111950964E+06,
2461085.500000000, A.D. 2026-Feb-14 00:00:00.0000, 3.684110198057060E+08, 2.117774647057062E+08, -3.793648294378668E+05,
2461092.500000000, A.D. 2026-Feb-21 00:00:00.0000, 3.619758059950832E+08, 2.209568103740428E+08, 6.444209440781772E+05,
2461099.500000000, A.D. 2026-Feb-28 00:00:00.0000, 3.553102026221595E+08, 2.299954895990593E+08, 1.667795734035760E+06,
2461106.500000000, A.D. 2026-Mar-07 00:00:00.0000, 3.484171218822702E+08, 2.388868882680653E+08, 2.690101779208124E+06,
2461113.500000000, A.D. 2026-Mar-14 00:00:00.0000, 3.412997060767494E+08, 2.476244441705922E+08, 3.710674786469743E+06,
2461120.500000000, A.D. 2026-Mar-21 00:00:00.0000, 3.339613285826092E+08, 2.562016557851839E+08, 4.728844545327991E+06,
2461127.500000000, A.D. 2026-Mar-28 00:00:00.0000, 3.264055944016656E+08, 2.646120924364179E+08, 5.743935669038668E+06,
2461134.500000000, A.D. 2026-Apr-04 00:00:00.0000, 3.186363396640747E+08, 2.728494048256313E+08, 6.755268437204719E+06,
2461141.500000000, A.D. 2026-Apr-11 00:00:00.0000, 3.106576303429975E+08, 2.809073355446469E+08, 7.762159683688387E+06,
2461148.500000000, A.D. 2026-Apr-18 00:00:00.0000, 3.024737603271697E+08, 2.887797295340079E+08, 8.763923712960795E+06,
2461155.500000000, A.D. 2026-Apr-25 00:00:00.0000, 2.940892488888456E+08, 2.964605444662534E+08, 9.759873239964142E+06,
2461162.500000000, A.D. 2026-May-02 00:00:00.0000, 2.855088375722407E+08, 3.039438609876454E+08, 1.074932034600791E+07,
2461169.500000000, A.D. 2026-May-09 00:00:00.0000, 2.767374866234638E+08, 3.112238927131987E+08, 1.173157743128842E+07,
2461176.500000000, A.D. 2026-May-16 00:00:00.0000, 2.677803713387741E+08, 3.182949960735536E+08, 1.270595813778807E+07,
2461183.500000000, A.D. 2026-May-23 00:00:00.0000, 2.586428783848837E+08, 3.251516809945592E+08, 1.367177831800711E+07,
2461190.500000000, A.D. 2026-May-30 00:00:00.0000, 2.493306000147204E+08, 3.317886226848940E+08, 1.462835726255924E+07,
2461197.500000000, A.D. 2026-Jun-06 00:00:00.0000, 2.398493258647501E+08, 3.382006712181373E+08, 1.557501894488728E+07,
2461204.500000000, A.D. 2026-Jun-13 00:00:00.0000, 2.302050360124725E+08, 3.443828590715094E+08, 1.651109295958880E+07,
2461211.500000000, A.D. 2026-Jun-20 00:00:00.0000, 2.204038948084783E+08, 3.503304095061014E+08, 1.743591543513492E+07,
2461218.500000000, A.D. 2026-Jun-27 00:00:00.0000, 2.104522438002687E+08, 3.560387454078195E+08, 1.834883004471096E+07,
2461225.500000000, A.D. 2026-Jul-04 00:00:00.0000, 2.003565937670713E+08, 3.615034977760254E+08, 1.924918904768300E+07,
2461232.500000000, A.D. 2026-Jul-11 00:00:00.0000, 1.901236161428182E+08, 3.667205136915560E+08, 2.013635432339191E+07,
2461239.500000000, A.D. 2026-Jul-18 00:00:00.0000, 1.797601339464253E+08, 3.716858637550154E+08, 2.100969838663010E+07,
2461246.500000000, A.D. 2026-Jul-25 00:00:00.0000, 1.692731122731050E+08, 3.763958489651197E+08, 2.186860537858211E+07,
2461253.500000000, A.D. 2026-Aug-01 00:00:00.0000, 1.586696484267210E+08, 3.808470069583077E+08, 2.271247202078813E+07,
2461260.500000000, A.D. 2026-Aug-08 00:00:00.0000, 1.479569619424018E+08, 3.850361175459170E+08, 2.354070850556150E+07,
2461267.500000000, A.D. 2026-Aug-15 00:00:00.0000, 1.371423849514709E+08, 3.889602079751405E+08, 2.435273931788573E+07,
2461274.500000000, A.D. 2026-Aug-22 00:00:00.0000, 1.262333521681373E+08, 3.926165591133137E+08, 2.514800415467104E+07,
2461281.500000000, A.D. 2026-Aug-29 00:00:00.0000, 1.152373882494838E+08, 3.960027111598817E+08, 2.592595903528801E+07,
$$EOE